INMARSAT 4-F3           
1 33278U 08039A   17345.45879469 -.00000147  00000-0  00000+0 0  9997
2 33278   3.0270   3.2231 0002986 263.1102 241.2236  1.00271244 34084
